{"fetched_at":"2026-07-14T06:34:20.123Z","source":"https://celestrak.org/NORAD/elements/gp.php?GROUP=kuiper&FORMAT=JSON","constellation":"kuiper","records":[{"OBJECT_NAME":"KUIPER-00629","OBJECT_ID":"2026-151W","EPOCH":"2026-07-13T13:32:48.901632","CLASSIFICATION_TYPE":"U","MEAN_MOTION":15.36945234,"ECCENTRICITY":0.0007214,"INCLINATION":51.8735,"RA_OF_ASC_NODE":188.3068,"ARG_OF_PERICENTER":140.5053,"MEAN_ANOMALY":219.6461,"EPHEMERIS_TYPE":0,"NORAD_CAT_ID":69783,"ELEMENT_SET_NO":999,"REV_AT_EPOCH":176,"BSTAR":0.00031561,"MEAN_MOTION_DOT":0.00011215,"MEAN_MOTION_DDOT":0},{"OBJECT_NAME":"KUIPER-00631","OBJECT_ID":"2026-151X","EPOCH":"2026-07-13T13:35:14.292096","CLASSIFICATION_TYPE":"U","MEAN_MOTION":15.36717343,"ECCENTRICITY":0.0007831,"INCLINATION":51.8701,"RA_OF_ASC_NODE":188.3183,"ARG_OF_PERICENTER":148.8485,"MEAN_ANOMALY":211.2967,"EPHEMERIS_TYPE":0,"NORAD_CAT_ID":69784,"ELEMENT_SET_NO":999,"REV_AT_EPOCH":176,"BSTAR":0.00030825,"MEAN_MOTION_DOT":0.00010863,"MEAN_MOTION_DDOT":0},{"OBJECT_NAME":"KUIPER-00634","OBJECT_ID":"2026-151Y","EPOCH":"2026-07-13T10:17:19.322304","CLASSIFICATION_TYPE":"U","MEAN_MOTION":15.37708366,"ECCENTRICITY":0.00037538,"INCLINATION":51.8762,"RA_OF_ASC_NODE":188.8963,"ARG_OF_PERICENTER":128.5208,"MEAN_ANOMALY":231.6116,"EPHEMERIS_TYPE":0,"NORAD_CAT_ID":69785,"ELEMENT_SET_NO":999,"REV_AT_EPOCH":174,"BSTAR":0.00021681388,"MEAN_MOTION_DOT":0.00007771,"MEAN_MOTION_DDOT":0},{"OBJECT_NAME":"KUIPER-00639","OBJECT_ID":"2026-151Z","EPOCH":"2026-07-13T13:40:43.127040","CLASSIFICATION_TYPE":"U","MEAN_MOTION":15.35898155,"ECCENTRICITY":0.000971,"INCLINATION":51.8684,"RA_OF_ASC_NODE":188.3396,"ARG_OF_PERICENTER":155.0519,"MEAN_ANOMALY":205.0938,"EPHEMERIS_TYPE":0,"NORAD_CAT_ID":69786,"ELEMENT_SET_NO":999,"REV_AT_EPOCH":176,"BSTAR":0.00035834,"MEAN_MOTION_DOT":0.00012363,"MEAN_MOTION_DDOT":0},{"OBJECT_NAME":"KUIPER-00641","OBJECT_ID":"2026-151AA","EPOCH":"2026-07-13T15:20:08.825856","CLASSIFICATION_TYPE":"U","MEAN_MOTION":15.35094393,"ECCENTRICITY":0.0010516,"INCLINATION":51.8671,"RA_OF_ASC_NODE":188.0509,"ARG_OF_PERICENTER":153.074,"MEAN_ANOMALY":207.0793,"EPHEMERIS_TYPE":0,"NORAD_CAT_ID":69787,"ELEMENT_SET_NO":999,"REV_AT_EPOCH":177,"BSTAR":0.00029123,"MEAN_MOTION_DOT":0.00009713,"MEAN_MOTION_DDOT":0},{"OBJECT_NAME":"KUIPER-00644","OBJECT_ID":"2026-151AB","EPOCH":"2026-07-13T13:37:10.788672","CLASSIFICATION_TYPE":"U","MEAN_MOTION":15.36536999,"ECCENTRICITY":0.0008501,"INCLINATION":51.8731,"RA_OF_ASC_NODE":188.3261,"ARG_OF_PERICENTER":152.059,"MEAN_ANOMALY":208.0854,"EPHEMERIS_TYPE":0,"NORAD_CAT_ID":69788,"ELEMENT_SET_NO":999,"REV_AT_EPOCH":176,"BSTAR":0.00031805,"MEAN_MOTION_DOT":0.00011156,"MEAN_MOTION_DDOT":0},{"OBJECT_NAME":"KUIPER-00646","OBJECT_ID":"2026-151AC","EPOCH":"2026-07-13T10:32:50.620992","CLASSIFICATION_TYPE":"U","MEAN_MOTION":15.35967857,"ECCENTRICITY":0.00100381,"INCLINATION":51.8702,"RA_OF_ASC_NODE":188.9638,"ARG_OF_PERICENTER":161.9649,"MEAN_ANOMALY":198.1695,"EPHEMERIS_TYPE":0,"NORAD_CAT_ID":69789,"ELEMENT_SET_NO":999,"REV_AT_EPOCH":174,"BSTAR":0.00077620227,"MEAN_MOTION_DOT":0.00027353,"MEAN_MOTION_DDOT":0},{"OBJECT_NAME":"KUIPER-00647","OBJECT_ID":"2026-151AD","EPOCH":"2026-07-13T13:44:39.513120","CLASSIFICATION_TYPE":"U","MEAN_MOTION":15.3563092,"ECCENTRICITY":0.0010603,"INCLINATION":51.8671,"RA_OF_ASC_NODE":188.3556,"ARG_OF_PERICENTER":160.0161,"MEAN_ANOMALY":200.1242,"EPHEMERIS_TYPE":0,"NORAD_CAT_ID":69790,"ELEMENT_SET_NO":999,"REV_AT_EPOCH":176,"BSTAR":0.0002943,"MEAN_MOTION_DOT":0.00009994,"MEAN_MOTION_DDOT":0},{"OBJECT_NAME":"KUIPER-00662","OBJECT_ID":"2026-151AE","EPOCH":"2026-07-13T19:50:50.758368","CLASSIFICATION_TYPE":"U","MEAN_MOTION":15.36575137,"ECCENTRICITY":0.0008447,"INCLINATION":51.8721,"RA_OF_ASC_NODE":187.0643,"ARG_OF_PERICENTER":148.8316,"MEAN_ANOMALY":211.3173,"EPHEMERIS_TYPE":0,"NORAD_CAT_ID":69791,"ELEMENT_SET_NO":999,"REV_AT_EPOCH":180,"BSTAR":-0.0000024634,"MEAN_MOTION_DOT":-0.00000482,"MEAN_MOTION_DDOT":0}]}
